{
  "type": "FeatureCollection",
  "features": [
    {
      "type": "Feature",
      "properties": {
        "name": "Basse-Terre"
      },
      "geometry": {
        "type": "Polygon",
        "coordinates": [
          [
            [-61.80, 15.97],
            [-61.77, 16.02],
            [-61.75, 16.08],
            [-61.74, 16.14],
            [-61.72, 16.20],
            [-61.70, 16.24],
            [-61.67, 16.27],
            [-61.63, 16.28],
            [-61.60, 16.24],
            [-61.60, 16.17],
            [-61.62, 16.10],
            [-61.64, 16.05],
            [-61.67, 16.00],
            [-61.72, 15.97],
            [-61.76, 15.95],
            [-61.80, 15.97]
          ]
        ]
      }
    },
    {
      "type": "Feature",
      "properties": {
        "name": "Grande-Terre"
      },
      "geometry": {
        "type": "Polygon",
        "coordinates": [
          [
            [-61.63, 16.18],
            [-61.60, 16.22],
            [-61.56, 16.25],
            [-61.51, 16.28],
            [-61.45, 16.31],
            [-61.39, 16.34],
            [-61.33, 16.34],
            [-61.28, 16.31],
            [-61.24, 16.27],
            [-61.23, 16.22],
            [-61.27, 16.18],
            [-61.33, 16.16],
            [-61.39, 16.14],
            [-61.46, 16.13],
            [-61.53, 16.13],
            [-61.59, 16.14],
            [-61.63, 16.18]
          ]
        ]
      }
    },
    {
      "type": "Feature",
      "properties": {
        "name": "Marie-Galante"
      },
      "geometry": {
        "type": "Polygon",
        "coordinates": [
          [
            [-61.31, 15.88],
            [-61.28, 15.91],
            [-61.23, 15.92],
            [-61.19, 15.90],
            [-61.17, 15.86],
            [-61.19, 15.82],
            [-61.23, 15.80],
            [-61.28, 15.81],
            [-61.31, 15.84],
            [-61.31, 15.88]
          ]
        ]
      }
    },
    {
      "type": "Feature",
      "properties": {
        "name": "Les Saintes"
      },
      "geometry": {
        "type": "Polygon",
        "coordinates": [
          [
            [-61.63, 15.89],
            [-61.62, 15.91],
            [-61.60, 15.92],
            [-61.58, 15.91],
            [-61.58, 15.89],
            [-61.60, 15.88],
            [-61.62, 15.88],
            [-61.63, 15.89]
          ]
        ]
      }
    },
    {
      "type": "Feature",
      "properties": {
        "name": "La Desirade"
      },
      "geometry": {
        "type": "Polygon",
        "coordinates": [
          [
            [-61.12, 16.31],
            [-61.08, 16.33],
            [-61.03, 16.33],
            [-61.00, 16.31],
            [-61.02, 16.29],
            [-61.07, 16.28],
            [-61.11, 16.29],
            [-61.12, 16.31]
          ]
        ]
      }
    }
  ]
}
